ONEWEB-0199             
1 48234U 21031AA  25015.58440074  .00000098  00000+0  22898-3 0  9991
2 48234  87.8986  32.6106 0001612  91.3569 268.7745 13.14501471180263
ONEWEB-0203             
1 48235U 21031AB  25015.57488881  .00000178  00000+0  44507-3 0  9999
2 48235  87.8987  32.6149 0001515 102.9732 257.1566 13.14501429180272
ONEWEB-0197             
1 48236U 21031AC  25015.55030239  .00000100  00000+0  23545-3 0  9992
2 48236  87.8986  32.6299 0001843  81.2108 278.9230 13.14501383180186
ONEWEB-0194             
1 48237U 21031AD  25015.60501097 -.00000186  00000+0 -53615-3 0  9991
2 48237  87.8987  32.6138 0001525  95.8143 264.3161 13.14501609180360
ONEWEB-0193             
1 48238U 21031AE  25015.54474118 -.00000051  00000+0 -17149-3 0  9991
2 48238  87.8987  32.6337 0001791  96.7774 263.3559 13.14504986180302
ONEWEB-0191             
1 48239U 21031AF  25015.55585373  .00000153  00000+0  37939-3 0  9999
2 48239  87.8982  32.6088 0001824  96.0621 264.0717 13.14502687180166
ONEWEB-0195             
1 48240U 21031AG  25015.60898096 -.00000174  00000+0 -50403-3 0  9992
2 48240  87.8982  32.5964 0002159 100.0005 260.1369 13.14501802180151
ONEWEB-0201             
1 48241U 21031AH  25015.59787010 -.00000115  00000+0 -34555-3 0  9999
2 48241  87.8988  32.6402 0001944  92.8038 267.3314 13.14500703180384
